[{"OBJECT_NAME":"YAOGAN-2","OBJECT_ID":"2007-019A","EPOCH":"2026-03-09T14:35:50.831808","MEAN_MOTION":14.82510137,"ECCENTRICITY":0.001955,"INCLINATION":98.2784,"RA_OF_ASC_NODE":285.8374,"ARG_OF_PERICENTER":233.2135,"MEAN_ANOMALY":126.7283,"EPHEMERIS_TYPE":0,"CLASSIFICATION_TYPE":"U","NORAD_CAT_ID":31490,"ELEMENT_SET_NO":999,"REV_AT_EPOCH":1286,"BSTAR":0.00014435,"MEAN_MOTION_DOT":1.104e-5,"MEAN_MOTION_DDOT":0},{"OBJECT_NAME":"COSMOS 2535 DEB","OBJECT_ID":"2019-039K","EPOCH":"2026-03-09T04:40:31.899360","MEAN_MOTION":14.82104579,"ECCENTRICITY":0.00498222,"INCLINATION":97.7231,"RA_OF_ASC_NODE":60.0545,"ARG_OF_PERICENTER":14.74,"MEAN_ANOMALY":345.5252,"EPHEMERIS_TYPE":0,"CLASSIFICATION_TYPE":"U","NORAD_CAT_ID":44633,"ELEMENT_SET_NO":999,"REV_AT_EPOCH":34587,"BSTAR":0.00036285811,"MEAN_MOTION_DOT":2.896e-5,"MEAN_MOTION_DDOT":0}]
